[
  {
    "OBJECT_NAME": "STARLINK-5213",
    "OBJECT_ID": "22136AU",
    "EPOCH": "2025-11-10T19:53:37.576032",
    "MEAN_MOTION": 15.08841515,
    "ECCENTRICITY": 0.0001365,
    "INCLINATION": 53.2135,
    "RA_OF_ASC_NODE": 147.4586,
    "ARG_OF_PERICENTER": 90.2643,
    "MEAN_ANOMALY": 269.8506,
    "EPHEMERIS_TYPE": 0,
    "CLASSIFICATION_TYPE": "U",
    "NORAD_CAT_ID": 54093,
    "ELEMENT_SET_NO": 999,
    "REV_AT_EPOCH": 16904,
    "BSTAR": 5.495900000000001e-05,
    "MEAN_MOTION_DOT": 5.87e-06,
    "MEAN_MOTION_DDOT": 0.0,
    "TLE_LINE1": "1 54093U 22136AU  25314.82890713  .00000587  00000+0  54959-4 0  9993",
    "TLE_LINE2": "2 54093  53.2135 147.4586 0001365  90.2643 269.8506 15.08841515169040",
    "COMMENT": "Grouped by shell and plane from TLE"
  },
  {
    "OBJECT_NAME": "STARLINK-5219",
    "OBJECT_ID": "22136AV",
    "EPOCH": "2025-11-10T23:15:01.900800",
    "MEAN_MOTION": 15.08826082,
    "ECCENTRICITY": 0.00019,
    "INCLINATION": 53.2162,
    "RA_OF_ASC_NODE": 146.9103,
    "ARG_OF_PERICENTER": 83.7986,
    "MEAN_ANOMALY": 276.3223,
    "EPHEMERIS_TYPE": 0,
    "CLASSIFICATION_TYPE": "U",
    "NORAD_CAT_ID": 54094,
    "ELEMENT_SET_NO": 999,
    "REV_AT_EPOCH": 16906,
    "BSTAR": 8.823e-05,
    "MEAN_MOTION_DOT": 1.116e-05,
    "MEAN_MOTION_DDOT": 0.0,
    "TLE_LINE1": "1 54094U 22136AV  25314.96877200  .00001116  00000+0  88230-4 0  9993",
    "TLE_LINE2": "2 54094  53.2162 146.9103 0001900  83.7986 276.3223 15.08826082169065",
    "COMMENT": "Grouped by shell and plane from TLE"
  },
  {
    "OBJECT_NAME": "STARLINK-5193",
    "OBJECT_ID": "22136AW",
    "EPOCH": "2025-11-10T19:43:00.725952",
    "MEAN_MOTION": 15.08843981,
    "ECCENTRICITY": 0.0001443,
    "INCLINATION": 53.2146,
    "RA_OF_ASC_NODE": 147.4126,
    "ARG_OF_PERICENTER": 87.9972,
    "MEAN_ANOMALY": 272.1186,
    "EPHEMERIS_TYPE": 0,
    "CLASSIFICATION_TYPE": "U",
    "NORAD_CAT_ID": 54095,
    "ELEMENT_SET_NO": 999,
    "REV_AT_EPOCH": 16904,
    "BSTAR": 9.9169e-05,
    "MEAN_MOTION_DOT": 1.291e-05,
    "MEAN_MOTION_DDOT": 0.0,
    "TLE_LINE1": "1 54095U 22136AW  25314.82153618  .00001291  00000+0  99169-4 0  9996",
    "TLE_LINE2": "2 54095  53.2146 147.4126 0001443  87.9972 272.1186 15.08843981169049",
    "COMMENT": "Grouped by shell and plane from TLE"
  },
  {
    "OBJECT_NAME": "STARLINK-5188",
    "OBJECT_ID": "22136AX",
    "EPOCH": "2025-11-11T05:31:14.994624",
    "MEAN_MOTION": 15.08839979,
    "ECCENTRICITY": 0.0001323,
    "INCLINATION": 53.2166,
    "RA_OF_ASC_NODE": 145.697,
    "ARG_OF_PERICENTER": 87.361,
    "MEAN_ANOMALY": 272.7534,
    "EPHEMERIS_TYPE": 0,
    "CLASSIFICATION_TYPE": "U",
    "NORAD_CAT_ID": 54096,
    "ELEMENT_SET_NO": 999,
    "REV_AT_EPOCH": 16910,
    "BSTAR": 7.2573e-05,
    "MEAN_MOTION_DOT": 8.67e-06,
    "MEAN_MOTION_DDOT": 0.0,
    "TLE_LINE1": "1 54096U 22136AX  25315.23003466  .00000867  00000+0  72573-4 0  9996",
    "TLE_LINE2": "2 54096  53.2166 145.6970 0001323  87.3610 272.7534 15.08839979169101",
    "COMMENT": "Grouped by shell and plane from TLE"
  },
  {
    "OBJECT_NAME": "STARLINK-5217",
    "OBJECT_ID": "22136AZ",
    "EPOCH": "2025-11-10T22:50:00.206592",
    "MEAN_MOTION": 15.08842331,
    "ECCENTRICITY": 0.0001279,
    "INCLINATION": 53.2146,
    "RA_OF_ASC_NODE": 147.4947,
    "ARG_OF_PERICENTER": 92.5208,
    "MEAN_ANOMALY": 267.5931,
    "EPHEMERIS_TYPE": 0,
    "CLASSIFICATION_TYPE": "U",
    "NORAD_CAT_ID": 54098,
    "ELEMENT_SET_NO": 999,
    "REV_AT_EPOCH": 16905,
    "BSTAR": 0.00043327,
    "MEAN_MOTION_DOT": 6.615e-05,
    "MEAN_MOTION_DDOT": 0.0,
    "TLE_LINE1": "1 54098U 22136AZ  25314.95139128  .00006615  00000+0  43327-3 0  9992",
    "TLE_LINE2": "2 54098  53.2146 147.4947 0001279  92.5208 267.5931 15.08842331169059",
    "COMMENT": "Grouped by shell and plane from TLE"
  },
  {
    "OBJECT_NAME": "STARLINK-5198",
    "OBJECT_ID": "22136BA",
    "EPOCH": "2025-11-10T22:37:51.314592",
    "MEAN_MOTION": 15.08845915,
    "ECCENTRICITY": 0.0001571,
    "INCLINATION": 53.2156,
    "RA_OF_ASC_NODE": 146.7496,
    "ARG_OF_PERICENTER": 80.6141,
    "MEAN_ANOMALY": 279.5029,
    "EPHEMERIS_TYPE": 0,
    "CLASSIFICATION_TYPE": "U",
    "NORAD_CAT_ID": 54099,
    "ELEMENT_SET_NO": 999,
    "REV_AT_EPOCH": 16906,
    "BSTAR": 7.409400000000001e-05,
    "MEAN_MOTION_DOT": 8.92e-06,
    "MEAN_MOTION_DDOT": 0.0,
    "TLE_LINE1": "1 54099U 22136BA  25314.94295503  .00000892  00000+0  74094-4 0  9999",
    "TLE_LINE2": "2 54099  53.2156 146.7496 0001571  80.6141 279.5029 15.08845915169064",
    "COMMENT": "Grouped by shell and plane from TLE"
  },
  {
    "OBJECT_NAME": "STARLINK-5185",
    "OBJECT_ID": "22136BB",
    "EPOCH": "2025-11-11T05:20:36.515040",
    "MEAN_MOTION": 15.08869319,
    "ECCENTRICITY": 0.0001886,
    "INCLINATION": 53.212,
    "RA_OF_ASC_NODE": 145.653,
    "ARG_OF_PERICENTER": 81.5189,
    "MEAN_ANOMALY": 278.6017,
    "EPHEMERIS_TYPE": 0,
    "CLASSIFICATION_TYPE": "U",
    "NORAD_CAT_ID": 54100,
    "ELEMENT_SET_NO": 999,
    "REV_AT_EPOCH": 16910,
    "BSTAR": 0.00026281,
    "MEAN_MOTION_DOT": 3.9e-05,
    "MEAN_MOTION_DDOT": 0.0,
    "TLE_LINE1": "1 54100U 22136BB  25315.22264485  .00003900  00000+0  26281-3 0  9996",
    "TLE_LINE2": "2 54100  53.2120 145.6530 0001886  81.5189 278.6017 15.08869319169102",
    "COMMENT": "Grouped by shell and plane from TLE"
  },
  {
    "OBJECT_NAME": "STARLINK-5233",
    "OBJECT_ID": "22141D",
    "EPOCH": "2025-11-10T19:41:05.025984",
    "MEAN_MOTION": 15.08842245,
    "ECCENTRICITY": 0.0001517,
    "INCLINATION": 53.2153,
    "RA_OF_ASC_NODE": 142.7155,
    "ARG_OF_PERICENTER": 93.7035,
    "MEAN_ANOMALY": 266.4131,
    "EPHEMERIS_TYPE": 0,
    "CLASSIFICATION_TYPE": "U",
    "NORAD_CAT_ID": 54160,
    "ELEMENT_SET_NO": 999,
    "REV_AT_EPOCH": 16840,
    "BSTAR": 7.9911e-05,
    "MEAN_MOTION_DOT": 9.84e-06,
    "MEAN_MOTION_DDOT": 0.0,
    "TLE_LINE1": "1 54160U 22141D   25314.82019706  .00000984  00000+0  79911-4 0  9995",
    "TLE_LINE2": "2 54160  53.2153 142.7155 0001517  93.7035 266.4131 15.08842245168404",
    "COMMENT": "Grouped by shell and plane from TLE"
  },
  {
    "OBJECT_NAME": "STARLINK-5231",
    "OBJECT_ID": "22141AB",
    "EPOCH": "2025-11-11T05:57:43.118208",
    "MEAN_MOTION": 15.08840114,
    "ECCENTRICITY": 0.0001429,
    "INCLINATION": 53.2159,
    "RA_OF_ASC_NODE": 145.4574,
    "ARG_OF_PERICENTER": 88.8719,
    "MEAN_ANOMALY": 271.2437,
    "EPHEMERIS_TYPE": 0,
    "CLASSIFICATION_TYPE": "U",
    "NORAD_CAT_ID": 54182,
    "ELEMENT_SET_NO": 999,
    "REV_AT_EPOCH": 16840,
    "BSTAR": 6.0224000000000005e-05,
    "MEAN_MOTION_DOT": 6.71e-06,
    "MEAN_MOTION_DDOT": 0.0,
    "TLE_LINE1": "1 54182U 22141AB  25315.24841572  .00000671  00000+0  60224-4 0  9990",
    "TLE_LINE2": "2 54182  53.2159 145.4574 0001429  88.8719 271.2437 15.08840114168401",
    "COMMENT": "Grouped by shell and plane from TLE"
  },
  {
    "OBJECT_NAME": "STARLINK-5255",
    "OBJECT_ID": "22141BD",
    "EPOCH": "2025-11-11T05:24:00.669600",
    "MEAN_MOTION": 15.08838404,
    "ECCENTRICITY": 0.0001375,
    "INCLINATION": 53.2155,
    "RA_OF_ASC_NODE": 140.9758,
    "ARG_OF_PERICENTER": 90.9432,
    "MEAN_ANOMALY": 269.1718,
    "EPHEMERIS_TYPE": 0,
    "CLASSIFICATION_TYPE": "U",
    "NORAD_CAT_ID": 54208,
    "ELEMENT_SET_NO": 999,
    "REV_AT_EPOCH": 16846,
    "BSTAR": 7.309700000000001e-05,
    "MEAN_MOTION_DOT": 8.76e-06,
    "MEAN_MOTION_DDOT": 0.0,
    "TLE_LINE1": "1 54208U 22141BD  25315.22500775  .00000876  00000+0  73097-4 0  9993",
    "TLE_LINE2": "2 54208  53.2155 140.9758 0001375  90.9432 269.1718 15.08838404168469",
    "COMMENT": "Grouped by shell and plane from TLE"
  },
  {
    "OBJECT_NAME": "STARLINK-5484",
    "OBJECT_ID": "23021A",
    "EPOCH": "2025-11-11T05:47:10.514688",
    "MEAN_MOTION": 14.98335337,
    "ECCENTRICITY": 0.0002935,
    "INCLINATION": 69.9987,
    "RA_OF_ASC_NODE": 143.1939,
    "ARG_OF_PERICENTER": 270.1201,
    "MEAN_ANOMALY": 89.9622,
    "EPHEMERIS_TYPE": 0,
    "CLASSIFICATION_TYPE": "U",
    "NORAD_CAT_ID": 55628,
    "ELEMENT_SET_NO": 999,
    "REV_AT_EPOCH": 15055,
    "BSTAR": 3.104e-05,
    "MEAN_MOTION_DOT": 2.77e-06,
    "MEAN_MOTION_DDOT": 0.0,
    "TLE_LINE1": "1 55628U 23021A   25315.24109392  .00000277  00000+0  31040-4 0  9997",
    "TLE_LINE2": "2 55628  69.9987 143.1939 0002935 270.1201  89.9622 14.98335337150556",
    "COMMENT": "Grouped by shell and plane from TLE"
  },
  {
    "OBJECT_NAME": "STARLINK-5497",
    "OBJECT_ID": "23021B",
    "EPOCH": "2025-11-11T05:53:11.318496",
    "MEAN_MOTION": 14.9832429,
    "ECCENTRICITY": 0.0003105,
    "INCLINATION": 69.9973,
    "RA_OF_ASC_NODE": 143.2097,
    "ARG_OF_PERICENTER": 268.4221,
    "MEAN_ANOMALY": 91.6582,
    "EPHEMERIS_TYPE": 0,
    "CLASSIFICATION_TYPE": "U",
    "NORAD_CAT_ID": 55629,
    "ELEMENT_SET_NO": 999,
    "REV_AT_EPOCH": 15055,
    "BSTAR": 0.0,
    "MEAN_MOTION_DOT": -5.34e-06,
    "MEAN_MOTION_DDOT": 0.0,
    "TLE_LINE1": "1 55629U 23021B   25315.24526989 -.00000534  00000+0 -36955-4 0  9991",
    "TLE_LINE2": "2 55629  69.9973 143.2097 0003105 268.4221  91.6582 14.98324290150551",
    "COMMENT": "Grouped by shell and plane from TLE"
  },
  {
    "OBJECT_NAME": "STARLINK-5303",
    "OBJECT_ID": "23021C",
    "EPOCH": "2025-11-11T05:41:10.022784",
    "MEAN_MOTION": 14.98333195,
    "ECCENTRICITY": 0.0002162,
    "INCLINATION": 69.9981,
    "RA_OF_ASC_NODE": 143.179,
    "ARG_OF_PERICENTER": 272.9264,
    "MEAN_ANOMALY": 87.1647,
    "EPHEMERIS_TYPE": 0,
    "CLASSIFICATION_TYPE": "U",
    "NORAD_CAT_ID": 55630,
    "ELEMENT_SET_NO": 999,
    "REV_AT_EPOCH": 15055,
    "BSTAR": 3.1379000000000006e-05,
    "MEAN_MOTION_DOT": 2.82e-06,
    "MEAN_MOTION_DDOT": 0.0,
    "TLE_LINE1": "1 55630U 23021C   25315.23692156  .00000282  00000+0  31379-4 0  9995",
    "TLE_LINE2": "2 55630  69.9981 143.1790 0002162 272.9264  87.1647 14.98333195150556",
    "COMMENT": "Grouped by shell and plane from TLE"
  }
]